[{"OBJECT_NAME":"STARLINK-1363","OBJECT_ID":"2020-025AP","EPOCH":"2026-03-09T04:33:57.485088","MEAN_MOTION":15.76582535,"ECCENTRICITY":0.00083079,"INCLINATION":53.043,"RA_OF_ASC_NODE":40.2129,"ARG_OF_PERICENTER":56.0535,"MEAN_ANOMALY":304.1273,"EPHEMERIS_TYPE":0,"CLASSIFICATION_TYPE":"U","NORAD_CAT_ID":45568,"ELEMENT_SET_NO":999,"REV_AT_EPOCH":32597,"BSTAR":0.00073874012,"MEAN_MOTION_DOT":0.00121445,"MEAN_MOTION_DDOT":0},{"OBJECT_NAME":"STARLINK-36616","OBJECT_ID":"2026-022AA","EPOCH":"2026-03-09T15:12:39.854304","MEAN_MOTION":15.75258991,"ECCENTRICITY":0.0002526,"INCLINATION":97.284,"RA_OF_ASC_NODE":102.6614,"ARG_OF_PERICENTER":1.7647,"MEAN_ANOMALY":358.3627,"EPHEMERIS_TYPE":0,"CLASSIFICATION_TYPE":"U","NORAD_CAT_ID":67672,"ELEMENT_SET_NO":999,"REV_AT_EPOCH":554,"BSTAR":0.002284,"MEAN_MOTION_DOT":0.00356211,"MEAN_MOTION_DDOT":0}]
