STARLINK-1363           
1 45568U 20025AP  26068.19024867  .00121445  00000+0  73874-3 0  9994
2 45568  53.0430  40.2129 0008307  56.0535 304.1273 15.76582535325978
STARLINK-36616          
1 67672U 26022AA  26068.63379461  .00356211  00000+0  22840-2 0  9996
2 67672  97.2840 102.6614 0002526   1.7647 358.3627 15.75258991  5540
